OBJECT_NAME,OBJECT_ID,EPOCH,MEAN_MOTION,ECCENTRICITY,INCLINATION,RA_OF_ASC_NODE,ARG_OF_PERICENTER,MEAN_ANOMALY,EPHEMERIS_TYPE,CLASSIFICATION_TYPE,NORAD_CAT_ID,ELEMENT_SET_NO,REV_AT_EPOCH,BSTAR,MEAN_MOTION_DOT,MEAN_MOTION_DDOT
FLOCK 4BE-18,2024-149N,2026-07-10T04:18:13.375872,15.42627981,.00048093,97.3723,275.1601,158.3301,201.8151,0,U,60480,999,10585,.24256152E-3,.10476E-3,0
FLOCK 4BE-7,2024-149P,2026-07-10T12:47:25.182240,15.41321907,.000402,97.3755,274.8154,160.9119,199.2279,0,U,60481,999,10584,.38945E-3,.16162E-3,0
TOMORROW-S2,2024-149T,2026-07-08T18:34:18.962112,15.33077157,.00032943,97.3813,270.6915,165.0151,195.1189,0,U,60485,999,10539,.17492718E-3,.5511E-4,0
FLOCK 4BE-36,2024-149U,2026-07-08T18:38:48.136128,15.43394438,.00042911,97.3738,274.4730,170.3083,189.8249,0,U,60486,999,10568,.27967151E-3,.12409E-3,0
FLOCK 4BE-25,2024-149V,2026-07-09T04:37:33.544704,15.39431125,.00032946,97.3792,273.5000,156.2094,203.9304,0,U,60487,999,10562,.277744E-3,.10797E-3,0
FLOCK 4BE-31,2024-149W,2026-07-09T01:06:53.876160,15.44977948,.00033799,97.3793,275.6689,166.3128,193.8213,0,U,60488,999,10575,.32502679E-3,.15235E-3,0
FLOCK 4BE-20,2024-149X,2026-07-10T12:47:03.560640,15.38726180,.0004628,97.3694,273.6700,165.1738,194.9644,0,U,60489,999,10580,.25405E-3,.9644E-4,0
FLOCK 4BE-23,2024-149Y,2026-07-09T00:47:36.042720,15.38255639,.00040844,97.3776,272.5504,173.1683,186.9618,0,U,60490,999,10555,.27962152E-3,.10461E-3,0
FLOCK 4BE-17,2024-149AA,2026-07-08T17:26:48.530976,15.40434288,.00039315,97.3765,273.2745,162.8357,197.3023,0,U,60492,999,10557,.28106945E-3,.11296E-3,0
NUSAT-50 (NANCY ROMAN),2024-149AB,2026-07-10T04:32:09.262176,15.30262915,.00048011,97.3785,272.2892,113.5193,246.6553,0,U,60493,999,10564,.23592323E-3,.6833E-4,0
FLOCK 4BE-22,2024-149AC,2026-07-09T12:47:07.131552,15.41863105,.00043216,97.3728,274.3148,170.2416,189.8915,0,U,60494,999,10574,.2807107E-3,.11831E-3,0
FLOCK 4BE-34,2024-149AD,2026-07-08T18:30:44.832672,15.41812306,.00041837,97.3774,274.3812,179.9988,180.1260,0,U,60495,999,10565,.28512917E-3,.11999E-3,0
TYCHE,2024-149AE,2026-07-10T13:06:55.039104,15.25806350,.0002642,97.3751,269.0489,178.8423,181.2822,0,U,60496,999,10546,.11191E-3,.2788E-4,0
FLOCK 4BE-32,2024-149AF,2026-07-08T18:57:44.417088,15.42925610,.00043833,97.3712,273.9609,177.0530,183.0744,0,U,60497,999,10566,.31189442E-3,.13635E-3,0
NUSAT-48 (HENRIETTA LEAVITT),2024-149AG,2026-07-10T04:16:07.925664,15.30220707,.00043336,97.3914,272.5613,173.6918,186.4378,0,U,60498,999,10565,.23360515E-3,.6755E-4,0
NUSAT-49 (KLARA DAN VON NEUMANN),2024-149AJ,2026-07-08T18:45:10.426752,15.30310950,.00018193,97.3775,270.9235,182.0121,178.1113,0,U,60500,999,10543,.21663565E-3,.6275E-4,0
FLOCK 4BE-11,2024-149AK,2026-07-10T04:47:11.653152,15.43759592,.00045665,97.3696,275.6385,172.5870,187.5446,0,U,60501,999,10590,.31749865E-3,.14279E-3,0
YAM-7,2024-149AN,2026-07-08T19:23:45.390336,15.32122293,.00030232,97.3775,269.9731,189.0123,171.1065,0,U,60504,999,10536,.15150697E-3,.462E-4,0
FLOCK 4BE-24,2024-149AP,2026-07-09T12:51:25.814016,15.43944372,.00044967,97.3710,275.2320,186.8328,173.2860,0,U,60505,999,10581,.34635346E-3,.15684E-3,0
LUR-1,2024-149AQ,2026-07-10T04:42:02.396448,15.30406397,.00034608,97.3735,269.8605,200.4672,159.6430,0,U,60506,999,10549,.15876751E-3,.4592E-4,0
TANAGER-1,2024-149AR,2026-07-09T16:54:52.663680,15.43935842,.00027632,97.2281,284.8679,147.2432,212.8988,0,U,60507,999,10651,.7232946E-5,.245E-5,0
EAGLEEYE,2024-149AS,2026-07-08T19:10:13.123200,15.75536199,.0004993,97.3703,284.3989,195.9799,164.1310,0,U,60508,999,10633,.66755589E-3,.102225E-2,0
FLOCK 4BE-29,2024-149AT,2026-07-10T04:17:43.946304,15.45182166,.00029337,97.3804,277.4109,187.6056,172.5149,0,U,60509,999,10596,.75713847E-3,.35949E-3,0
TRANSPORTER-11 OBJECT AU,2024-149AU,2026-07-10T04:21:45.686592,15.40879278,.00037764,97.3727,275.0950,184.0269,176.0947,0,U,60510,999,10585,.28231865E-3,.11515E-3,0
FLOCK 4BE-2,2024-149AV,2026-07-09T15:52:13.296000,15.55382059,.00050911,97.3824,278.6387,188.0676,172.0497,0,U,60511,999,10599,.7547884E-3,.51489E-3,0
FLOCK 4BE-13,2024-149AW,2026-07-08T18:18:34.857216,15.42489198,.00045962,97.3713,274.4064,175.1537,184.9756,0,U,60512,999,10569,.247636E-3,.10647E-3,0
FLOCK 4BE-27,2024-149AX,2026-07-10T05:04:25.230432,15.34858715,.00034657,97.3822,273.0785,199.1987,160.9127,0,U,60513,999,10567,.20358354E-3,.6801E-4,0
